#dP2018 12 21  0  0  0.00000000      96 __u+U ITR00 FIT  IAC
## 2032 432000.00000000   900.00000000 58473 0.0000000000000
+   89   C01C03C04C05C06C07C08C09C10C11C12C13C14E01E02E03E04
+        E05E07E08E09E11E12E13E14E15E18E19E21E24E25E26E27E30
+        G01G02G03G04G05G06G07G08G09G10G11G12G13G14G15G16G17
+        G18G19G20G21G22G23G24G25G26G27G28G29G30G31G32R01R02
+        R03R04R05R07R08R09R10R11R13R14R15R16R17R18R19R20R21
+        R22R23R24R26  0  0  0  0  0  0  0  0  0  0  0  0  0
++        13 13 13 12  9  9  9  8  8  8  8  9  8  6  5  5  6
++         5  5  5  5  5  5  6  5  6  5  5  6  5  5  6  5  5
++         4  4  4  4  4  4  3  4  4  4  4  4  4  4  4  3  3
++         4  4  4  4  4  4  4  4  3  4  4  4  3  4  4  5  6
++         6  6  6  5  5  5  5  5  5  5  5  5  5  5  5  6  6
++         5  5  5  9  0  0  0  0  0  0  0  0  0  0  0  0  0
%c M  cc GPS ccc cccc cccc cccc cccc ccccc ccccc ccccc ccccc
%c cc cc ccc ccc cccc cccc cccc cccc ccccc ccccc ccccc ccccc
%f  0.0000000  0.000000000  0.00000000000  0.000000000000000
%f  0.0000000  0.000000000  0.00000000000  0.000000000000000
%i    0    0    0    0      0      0      0      0         0
%i    0    0    0    0      0      0      0      0         0
/*                                                          
/*   RSA / INFORMATION & ANALYSIS CENTER (IAC) OF MCC       
/*   ULTRA-RAPID DETERMINATION                              
/* PCV:IGS14_2029 OL/AL:FES2004  NONE     YN ORB:CoN CLK:CoN
*  2018 12 21 19  0  0.00000000
PC01 -32286.767503  27094.182632    707.790617    -10.377179
PC03 -14881.678174  39451.790786    530.942955   -161.397279
PC04 -39597.506311  14436.194542    494.021153   -246.366577
PC05  21791.499896  36097.822593    173.727750     18.426127
PC06 -22738.340442  22686.661277 -27212.187983    179.830450
PC07 -17977.442562  37405.472177  -5785.785986   -195.216796
PC08  -4408.225829  26647.378071  32549.352765     68.468076
PC09  -5528.687337  24625.413627 -33627.833438    384.948361
PC10  -6469.643049  40451.006878   9205.662420   -340.818914
PC11 -23197.920960 -13683.262799  -7106.854127    -98.545942
PC12   3233.360269 -15133.562785 -23148.536243    291.070017
PC13   6059.125674  33783.042371  24705.891085   -441.281228
PC14  -5409.263394 -15985.351977  22268.170404    518.518150
PE01 -14728.873493  20228.789370 -15809.299492   -503.922034
PE02  14719.271768 -20250.952662  15789.547621     40.079521
PE03  24384.443248 -14454.349056   8540.323842   -113.328079
PE04  -6751.507015  18683.207594 -21946.286610   -183.721764
PE05  27827.440004  -1728.784239  -9947.284906    138.630976
PE07 -14981.930975 -11961.564975  22550.254974    -97.898218
PE08   6568.323521 -18612.221125  22058.785343   6438.966246
PE09  15060.265623  11695.652138 -22644.228133   6581.720504
PE11  20246.780039  21210.817922   4001.385419   5717.227943
PE12   3755.321558  21241.707941  20273.225856   5767.587911
PE13 -20295.004392 -21142.559910  -4138.886696    380.780116
PE14  27224.996979   -540.466367  -4629.958215   6471.549558
PE15  -4315.227900 -21308.524234 -20073.029554    925.092180
PE18 -26367.451077 -10642.798204  -8410.700303   5665.355548
PE19 -25457.435959  13512.349889  -6759.974107     -9.713448
PE21 -16313.773957  -1029.755338 -24675.344469   -510.499967
PE24   8469.238450  20987.846884  19082.525737   6326.811035
PE25  16312.145480   1072.272608  24686.042072   1947.360628
PE26 -24463.688848  -8850.499051  14119.259172   5109.631261
PE27  -8219.803684 -21382.060572 -18736.472446    565.711880
PE30   4501.759723 -29156.045585  -2348.026687   5251.726486
PG01 -17240.759619  -4859.403654  19543.522064   -132.512624
PG02  14633.346801  22129.027961  -2142.852612    -91.941836
PG03 -18841.363228   6484.454152  17486.950083    171.431138
PG04 -12257.910428 -13381.539611 -19820.613474   -108.190294
PG05   9327.281556  13487.105172 -20977.711651      0.496496
PG06   5286.876033  24327.845590   9265.181337    312.104167
PG07 -11196.820987  11007.023832 -21118.752439     66.330408
PG08 -24747.081222  -6286.396479  -7590.082423   -126.366896
PG09 -21391.264847   8541.107504 -13281.853171    480.749675
PG10   9884.935475 -23645.310572   6632.949428    148.196963
PG11 -22584.727695  -6066.978717  11845.546225   -685.760103
PG12  17850.364407  -2441.439710  19256.143313    282.696677
PG13  19359.182183  12694.839843 -13165.059551    -80.861442
PG14  -4551.566086 -15656.014355  21299.495240    -94.315059
PG15  26170.373898   2937.329397  -5064.041253   -335.374434
PG16  -7316.899462 -13843.612612 -21544.569515     -7.979517
PG17  -6327.259391  14055.976767  22025.342612    -15.516886
PG18 -18305.713777 -14243.811687  12593.484898      7.853678
PG19   4337.952921  15011.791193  21166.923419   -371.532799
PG20  14255.915413 -22009.529783  -3874.100702    520.225846
PG21   7854.106553 -14888.571191 -19764.115933   -283.278221
PG22 -16947.863793  -1498.626718  20618.228655   -604.192294
PG23 -26392.485317   1779.791349  -3887.772677   -202.871532
PG24  18868.301224   9101.286384  16372.352321    -59.798217
PG25  18975.921697 -13599.444018  12239.000629   -694.539778
PG26   -324.185455 -21062.313636 -16087.310432     74.222877
PG27 -17868.555107 -11756.656956 -16007.925309    -35.942073
PG28 -12714.102771  22700.792147   6156.511673    759.334402
PG29  23561.203388  -4734.532954 -11327.667068    310.540136
PG30  -3405.217871  20837.550845 -15993.450219    -23.362265
PG31  -6608.926747 -24672.472364   6408.297296     71.254277
PG32   3456.707531 -15094.295931  21610.607533   -309.080617
PR01  13411.325874   4075.237901 -21320.709962     36.781220
PR02  22783.401801  -9391.825144  -6452.108141    345.548857
PR03  16836.839108 -15660.362008  11025.743852    152.313317
PR04    626.311105 -12560.208687  22197.388815    288.311235
PR05 -15037.459079  -2484.678251  20462.106172     18.208223
PR07 -16619.217455  15686.650180 -11344.197101    -54.201670
PR08  -1423.391596  12860.698015 -21940.176134     19.908800
PR09 -10712.151750   7350.100104 -21925.448252     44.927007
PR10  -6021.891863  21552.469376 -12187.525889     38.092263
PR11   2570.680465  24663.374166   5908.857123    -50.915154
PR13  10477.927361  -6443.331977  22331.999640    -18.136124
PR14   5989.161734 -21650.208771  12109.792927     34.195029
PR15  -2087.915534 -24917.866565  -5002.105617     98.956290
PR16  -9334.573801 -13809.550233 -19281.413173    109.299793
PR17   7127.865999  -8120.075629 -23094.033773    189.763323
PR18  -9582.959951 -15244.442615 -18073.928628     28.433730
PR19 -20719.092866 -14539.899229  -3130.951341    -62.209317
PR20 -20034.049966  -4445.399523  15192.279676   -363.069758
PR21  -6533.904507   8408.179045  23184.262569    -21.158352
PR22  11519.276013  15593.423635  16516.835649    -64.410388
PR23  22226.653483  12411.363790  -1639.994155    198.265685
PR24  19422.367286   3051.197997 -16264.956250   -175.180051
PR26 -20871.967262  -5230.651922  13692.717844     11.202041
EOF
